FALCONSAT-6             
1 43815U 18099BK  26068.72544389  .00005029  00000+0  19477-3 0  9998
2 43815  97.3865 145.8165 0014370 297.0944 181.0714 15.26532865398556
STARLINK-32169          
1 60589U 24150G   26068.86843275  .00000414  00000+0  26105-4 0  9991
2 60589  53.1609 306.5604 0001064  74.7722 285.3397 15.30178264 88064
